SENTINEL-1A             
1 39634U 14016A   26192.16176225  .00000022  00000+0  14446-4 0  9993
2 39634  98.1787 199.3444 0001442  85.0521 275.0843 14.59199753653515
SENTINEL-1C             
1 62261U 24235A   26192.20116101  .00000060  00000+0  22382-4 0  9991
2 62261  98.1822 199.1678 0001379  89.8153 270.3205 14.59197789 84915
SENTINEL-1D             
1 66315U 25251A   26191.48131250 -.00000023  00000+0  48164-5 0  9992
2 66315  98.1831 198.5130 0001393  92.3759 267.7600 14.59198047 36129
