{"fetched_at":"2026-07-11T09:24:38.864Z","source":"https://celestrak.org/NORAD/elements/gp.php?NAME=SENTINEL&FORMAT=JSON","constellation":"sentinel-1","records":[{"OBJECT_NAME":"SENTINEL-1A","OBJECT_ID":"2014-016A","EPOCH":"2026-07-11T03:52:56.258400","CLASSIFICATION_TYPE":"U","MEAN_MOTION":14.59199753,"ECCENTRICITY":0.0001442,"INCLINATION":98.1787,"RA_OF_ASC_NODE":199.3444,"ARG_OF_PERICENTER":85.0521,"MEAN_ANOMALY":275.0843,"EPHEMERIS_TYPE":0,"NORAD_CAT_ID":39634,"ELEMENT_SET_NO":999,"REV_AT_EPOCH":65351,"BSTAR":0.000014446,"MEAN_MOTION_DOT":2.2e-7,"MEAN_MOTION_DDOT":0},{"OBJECT_NAME":"SENTINEL-1C","OBJECT_ID":"2024-235A","EPOCH":"2026-07-11T04:49:40.311264","CLASSIFICATION_TYPE":"U","MEAN_MOTION":14.59197789,"ECCENTRICITY":0.0001379,"INCLINATION":98.1822,"RA_OF_ASC_NODE":199.1678,"ARG_OF_PERICENTER":89.8153,"MEAN_ANOMALY":270.3205,"EPHEMERIS_TYPE":0,"NORAD_CAT_ID":62261,"ELEMENT_SET_NO":999,"REV_AT_EPOCH":8491,"BSTAR":0.000022382,"MEAN_MOTION_DOT":6e-7,"MEAN_MOTION_DDOT":0},{"OBJECT_NAME":"SENTINEL-1D","OBJECT_ID":"2025-251A","EPOCH":"2026-07-10T11:33:05.400000","CLASSIFICATION_TYPE":"U","MEAN_MOTION":14.59198047,"ECCENTRICITY":0.0001393,"INCLINATION":98.1831,"RA_OF_ASC_NODE":198.513,"ARG_OF_PERICENTER":92.3759,"MEAN_ANOMALY":267.76,"EPHEMERIS_TYPE":0,"NORAD_CAT_ID":66315,"ELEMENT_SET_NO":999,"REV_AT_EPOCH":3612,"BSTAR":0.0000048164,"MEAN_MOTION_DOT":-2.3e-7,"MEAN_MOTION_DDOT":0}]}
